{"type": "FeatureCollection", "features": [ {"type": "Feature", "properties": {"norad_id": 29963, "name": "FENGYUN 1C DEB", "group": "fengyun-1c-debris", "lat": 67.55718369486054, "lon": 73.77361675232002, "alt_km": 823.3009200245097, "timestamp": "2025-12-13T05:42:57.831863+00:00", "meta": {"OBJECT_NAME": "FENGYUN 1C DEB", "OBJECT_ID": "1999-025KM", "EPOCH": "2025-12-11T21:53:28.757760", "MEAN_MOTION": 14.29456331, "ECCENTRICITY": 0.0051566, "INCLINATION": 98.9981, "RA_OF_ASC_NODE": 229.8467, "ARG_OF_PERICENTER": 304.6612, "MEAN_ANOMALY": 185.8546, "EPHEMERIS_TYPE": 0, "CLASSIFICATION_TYPE": "U", "NORAD_CAT_ID": 29963, "ELEMENT_SET_NO": 999, "REV_AT_EPOCH": 98131, "BSTAR": 0.0011601, "MEAN_MOTION_DOT": 2.957e-05, "MEAN_MOTION_DDOT": 0}, "tle": {"line1": "1 29963U 99025KM  25345.91213840  .00002957  00000+0  11601-2 0  9994", "line2": "2 29963  98.9981 229.8467 0051566 304.6612 185.8546 14.29456331981315"}}, "geometry": {"type": "Point", "coordinates": [73.77361675232002, 67.55718369486054]}}, {"type": "Feature", "properties": {"norad_id": 29964, "name": "FENGYUN 1C DEB", "group": "fengyun-1c-debris", "lat": -42.11815546419085, "lon": -162.64591344665385, "alt_km": 828.1779243056308, "timestamp": "2025-12-13T05:42:57.831874+00:00", "meta": {"OBJECT_NAME": "FENGYUN 1C DEB", "OBJECT_ID": "1999-025KN", "EPOCH": "2025-12-12T02:31:37.542432", "MEAN_MOTION": 14.027401, "ECCENTRICITY": 0.01307804, "INCLINATION": 98.3711, "RA_OF_ASC_NODE": 188.6616, "ARG_OF_PERICENTER": 271.3418, "MEAN_ANOMALY": 87.2772, "EPHEMERIS_TYPE": 0, "CLASSIFICATION_TYPE": "U", "NORAD_CAT_ID": 29964, "ELEMENT_SET_NO": 999, "REV_AT_EPOCH": 96308, "BSTAR": 0.0013496448, "MEAN_MOTION_DOT": 2.209e-05, "MEAN_MOTION_DDOT": 0}, "tle": {"line1": "1 29964U 99025KN  25346.10529563  .00002209  00000+0  13496-2 0  9993", "line2": "2 29964  98.3711 188.6616 0130780 271.3418  87.2772 14.02740100963080"}}, "geometry": {"type": "Point", "coordinates": [-162.64591344665385, -42.11815546419085]}}, {"type": "Feature", "properties": {"norad_id": 29965, "name": "FENGYUN 1C DEB", "group": "fengyun-1c-debris", "lat": 52.79331780546173, "lon": -30.141698981936308, "alt_km": 799.5526991386005, "timestamp": "2025-12-13T05:42:57.831885+00:00", "meta": {"OBJECT_NAME": "FENGYUN 1C DEB", "OBJECT_ID": "1999-025KP", "EPOCH": "2025-12-12T05:40:45.281280", "MEAN_MOTION": 13.95775796, "ECCENTRICITY": 0.01461126, "INCLINATION": 98.9627, "RA_OF_ASC_NODE": 340.881, "ARG_OF_PERICENTER": 69.378, "MEAN_ANOMALY": 355.0396, "EPHEMERIS_TYPE": 0, "CLASSIFICATION_TYPE": "U", "NORAD_CAT_ID": 29965, "ELEMENT_SET_NO": 999, "REV_AT_EPOCH": 96269, "BSTAR": 0.00027031654, "MEAN_MOTION_DOT": 3.61e-06, "MEAN_MOTION_DDOT": 0}, "tle": {"line1": "1 29965U 99025KP  25346.23663520  .00000361  00000+0  27032-3 0  9999", "line2": "2 29965  98.9627 340.8810 0146112  69.3780 355.0396 13.95775796962698"}}, "geometry": {"type": "Point", "coordinates": [-30.141698981936308, 52.79331780546173]}}, {"type": "Feature", "properties": {"norad_id": 29966, "name": "FENGYUN 1C DEB", "group": "fengyun-1c-debris", "lat": -47.324197746934765, "lon": -155.3056114855377, "alt_km": 788.5458831538735, "timestamp": "2025-12-13T05:42:57.831896+00:00", "meta": {"OBJECT_NAME": "FENGYUN 1C DEB", "OBJECT_ID": "1999-025KQ", "EPOCH": "2025-12-12T02:59:31.363584", "MEAN_MOTION": 14.25750675, "ECCENTRICITY": 0.00396479, "INCLINATION": 99.4914, "RA_OF_ASC_NODE": 193.0356, "ARG_OF_PERICENTER": 347.1723, "MEAN_ANOMALY": 12.8442, "EPHEMERIS_TYPE": 0, "CLASSIFICATION_TYPE": "U", "NORAD_CAT_ID": 29966, "ELEMENT_SET_NO": 999, "REV_AT_EPOCH": 98034, "BSTAR": 0.00056271674, "MEAN_MOTION_DOT": 1.296e-05, "MEAN_MOTION_DDOT": 0}, "tle": {"line1": "1 29966U 99025KQ  25346.12466856  .00001296  00000+0  56272-3 0  9997", "line2": "2 29966  99.4914 193.0356 0039647 347.1723  12.8442 14.25750675980340"}}, "geometry": {"type": "Point", "coordinates": [-155.3056114855377, -47.324197746934765]}}, {"type": "Feature", "properties": {"norad_id": 29967, "name": "FENGYUN 1C DEB", "group": "fengyun-1c-debris", "lat": 56.22140334959367, "lon": -102.66023916531663, "alt_km": 861.2571808252605, "timestamp": "2025-12-13T05:42:57.831906+00:00", "meta": {"OBJECT_NAME": "FENGYUN 1C DEB", "OBJECT_ID": "1999-025KR", "EPOCH": "2025-12-12T03:58:30.279072", "MEAN_MOTION": 14.235864, "ECCENTRICITY": 0.00759104, "INCLINATION": 98.8649, "RA_OF_ASC_NODE": 62.7666, "ARG_OF_PERICENTER": 294.161, "MEAN_ANOMALY": 95.0774, "EPHEMERIS_TYPE": 0, "CLASSIFICATION_TYPE": "U", "NORAD_CAT_ID": 29967, "ELEMENT_SET_NO": 999, "REV_AT_EPOCH": 97214, "BSTAR": 0.0023247508, "MEAN_MOTION_DOT": 5.412e-05, "MEAN_MOTION_DDOT": 0}, "tle": {"line1": "1 29967U 99025KR  25346.16562823  .00005412  00000+0  23248-2 0  9993", "line2": "2 29967  98.8649  62.7666 0075910 294.1610  95.0774 14.23586400972145"}}, "geometry": {"type": "Point", "coordinates": [-102.66023916531663, 56.22140334959367]}}, {"type": "Feature", "properties": {"norad_id": 29968, "name": "FENGYUN 1C DEB", "group": "fengyun-1c-debris", "lat": 15.462169647272207, "lon": -25.483783837264635, "alt_km": 808.9831392046726, "timestamp": "2025-12-13T05:42:57.831917+00:00", "meta": {"OBJECT_NAME": "FENGYUN 1C DEB", "OBJECT_ID": "1999-025KS", "EPOCH": "2025-12-12T05:50:05.631936", "MEAN_MOTION": 14.07256745, "ECCENTRICITY": 0.00901046, "INCLINATION": 98.8045, "RA_OF_ASC_NODE": 336.004, "ARG_OF_PERICENTER": 356.1709, "MEAN_ANOMALY": 20.9571, "EPHEMERIS_TYPE": 0, "CLASSIFICATION_TYPE": "U", "NORAD_CAT_ID": 29968, "ELEMENT_SET_NO": 999, "REV_AT_EPOCH": 97042, "BSTAR": 0.0003098493, "MEAN_MOTION_DOT": 4.96e-06, "MEAN_MOTION_DDOT": 0}, "tle": {"line1": "1 29968U 99025KS  25346.24312074  .00000496  00000+0  30985-3 0  9998", "line2": "2 29968  98.8045 336.0040 0090104 356.1709  20.9571 14.07256745970428"}}, "geometry": {"type": "Point", "coordinates": [-25.483783837264635, 15.462169647272207]}}, {"type": "Feature", "properties": {"norad_id": 29969, "name": "FENGYUN 1C DEB", "group": "fengyun-1c-debris", "lat": 59.16311447923114, "lon": -93.46322046365538, "alt_km": 765.0610501004858, "timestamp": "2025-12-13T05:42:57.831928+00:00", "meta": {"OBJECT_NAME": "FENGYUN 1C DEB", "OBJECT_ID": "1999-025KT", "EPOCH": "2025-12-11T04:49:26.101920", "MEAN_MOTION": 14.33193839, "ECCENTRICITY": 0.00417649, "INCLINATION": 98.7703, "RA_OF_ASC_NODE": 69.4877, "ARG_OF_PERICENTER": 55.2524, "MEAN_ANOMALY": 359.0146, "EPHEMERIS_TYPE": 0, "CLASSIFICATION_TYPE": "U", "NORAD_CAT_ID": 29969, "ELEMENT_SET_NO": 999, "REV_AT_EPOCH": 97640, "BSTAR": 0.0025726709, "MEAN_MOTION_DOT": 7.099e-05, "MEAN_MOTION_DDOT": 0}, "tle": {"line1": "1 29969U 99025KT  25345.20099655  .00007099  00000+0  25727-2 0  9994", "line2": "2 29969  98.7703  69.4877 0041764  55.2524 359.0146 14.33193839976405"}}, "geometry": {"type": "Point", "coordinates": [-93.46322046365538, 59.16311447923114]}}, {"type": "Feature", "properties": {"norad_id": 29970, "name": "FENGYUN 1C DEB", "group": "fengyun-1c-debris", "lat": -15.779769074559997, "lon": -81.92088474939044, "alt_km": 810.1148466883751, "timestamp": "2025-12-13T05:42:57.831938+00:00", "meta": {"OBJECT_NAME": "FENGYUN 1C DEB", "OBJECT_ID": "1999-025KU", "EPOCH": "2025-12-12T07:04:11.192736", "MEAN_MOTION": 14.43951038, "ECCENTRICITY": 0.00907286, "INCLINATION": 98.808, "RA_OF_ASC_NODE": 274.5914, "ARG_OF_PERICENTER": 188.832, "MEAN_ANOMALY": 292.7122, "EPHEMERIS_TYPE": 0, "CLASSIFICATION_TYPE": "U", "NORAD_CAT_ID": 29970, "ELEMENT_SET_NO": 999, "REV_AT_EPOCH": 99114, "BSTAR": 0.00072263485, "MEAN_MOTION_DOT": 2.544e-05, "MEAN_MOTION_DDOT": 0}, "tle": {"line1": "1 29970U 99025KU  25346.29457399  .00002544  00000+0  72263-3 0  9997", "line2": "2 29970  98.8080 274.5914 0090728 188.8320 292.7122 14.43951038991147"}}, "geometry": {"type": "Point", "coordinates": [-81.92088474939044, -15.779769074559997]}}, {"type": "Feature", "properties": {"norad_id": 29971, "name": "FENGYUN 1C DEB", "group": "fengyun-1c-debris", "lat": -79.2480485858544, "lon": 80.58652516752403, "alt_km": 844.7014170045031, "timestamp": "2025-12-13T05:42:57.831949+00:00", "meta": {"OBJECT_NAME": "FENGYUN 1C DEB", "OBJECT_ID": "1999-025KV", "EPOCH": "2025-12-12T01:36:25.235136", "MEAN_MOTION": 14.18175444, "ECCENTRICITY": 0.00238395, "INCLINATION": 98.6835, "RA_OF_ASC_NODE": 25.8502, "ARG_OF_PERICENTER": 169.6407, "MEAN_ANOMALY": 250.2919, "EPHEMERIS_TYPE": 0, "CLASSIFICATION_TYPE": "U", "NORAD_CAT_ID": 29971, "ELEMENT_SET_NO": 999, "REV_AT_EPOCH": 97330, "BSTAR": 0.0012732658, "MEAN_MOTION_DOT": 2.581e-05, "MEAN_MOTION_DDOT": 0}, "tle": {"line1": "1 29971U 99025KV  25346.06695874  .00002581  00000+0  12733-2 0  9991", "line2": "2 29971  98.6835  25.8502 0023839 169.6407 250.2919 14.18175444973308"}}, "geometry": {"type": "Point", "coordinates": [80.58652516752403, -79.2480485858544]}}, {"type": "Feature", "properties": {"norad_id": 29972, "name": "FENGYUN 1C DEB", "group": "fengyun-1c-debris", "lat": 13.927789197792997, "lon": -178.38305074808585, "alt_km": 715.1053450622894, "timestamp": "2025-12-13T05:42:57.831960+00:00", "meta": {"OBJECT_NAME": "FENGYUN 1C DEB", "OBJECT_ID": "1999-025KW", "EPOCH": "2025-12-12T07:44:29.132160", "MEAN_MOTION": 14.66339271, "ECCENTRICITY": 0.00649043, "INCLINATION": 98.9219, "RA_OF_ASC_NODE": 358.3897, "ARG_OF_PERICENTER": 13.667, "MEAN_ANOMALY": 1.2508, "EPHEMERIS_TYPE": 0, "CLASSIFICATION_TYPE": "U", "NORAD_CAT_ID": 29972, "ELEMENT_SET_NO": 999, "REV_AT_EPOCH": 99480, "BSTAR": 0.0019833657, "MEAN_MOTION_DOT": 0.00011255, "MEAN_MOTION_DDOT": 0}, "tle": {"line1": "1 29972U 99025KW  25346.32255940  .00011255  00000+0  19834-2 0  9994", "line2": "2 29972  98.9219 358.3897 0064904  13.6670   1.2508 14.66339271994806"}}, "geometry": {"type": "Point", "coordinates": [-178.38305074808585, 13.927789197792997]}}]}